CCSDS_OMM_VERS = 2.0
CREATION_DATE  = 
ORIGINATOR     = 

OBJECT_NAME    = STARLINK-36442
OBJECT_ID      = 2026-005K
CENTER_NAME    = EARTH
REF_FRAME      = TEME
TIME_SYSTEM    = UTC
MEAN_ELEMENT_THEORY = SGP/SGP4

EPOCH          = 2026-02-03T04:00:01.999584
MEAN_MOTION    = 15.50527169
ECCENTRICITY   = .000112
INCLINATION    = 42.9996
RA_OF_ASC_NODE = 76.1506
ARG_OF_PERICENTER = 262.5113
MEAN_ANOMALY   = 317.1811

EPHEMERIS_TYPE = 0
CLASSIFICATION_TYPE = U
NORAD_CAT_ID   = 67413
ELEMENT_SET_NO = 999
REV_AT_EPOCH   = 463
BSTAR          = .93991E-3
MEAN_MOTION_DOT = .55085E-3
MEAN_MOTION_DDOT = 0

CCSDS_OMM_VERS = 2.0
CREATION_DATE  = 
ORIGINATOR     = 

OBJECT_NAME    = STARLINK-36506
OBJECT_ID      = 2026-005L
CENTER_NAME    = EARTH
REF_FRAME      = TEME
TIME_SYSTEM    = UTC
MEAN_ELEMENT_THEORY = SGP/SGP4

EPOCH          = 2026-02-03T04:00:01.999584
MEAN_MOTION    = 15.50525093
ECCENTRICITY   = .0001098
INCLINATION    = 42.9997
RA_OF_ASC_NODE = 76.1463
ARG_OF_PERICENTER = 258.5032
MEAN_ANOMALY   = 323.1053

EPHEMERIS_TYPE = 0
CLASSIFICATION_TYPE = U
NORAD_CAT_ID   = 67414
ELEMENT_SET_NO = 999
REV_AT_EPOCH   = 463
BSTAR          = .99157E-3
MEAN_MOTION_DOT = .5815E-3
MEAN_MOTION_DDOT = 0

CCSDS_OMM_VERS = 2.0
CREATION_DATE  = 
ORIGINATOR     = 

OBJECT_NAME    = STARLINK-36468
OBJECT_ID      = 2026-005M
CENTER_NAME    = EARTH
REF_FRAME      = TEME
TIME_SYSTEM    = UTC
MEAN_ELEMENT_THEORY = SGP/SGP4

EPOCH          = 2026-02-03T04:00:01.999584
MEAN_MOTION    = 15.50522176
ECCENTRICITY   = .0001344
INCLINATION    = 42.9998
RA_OF_ASC_NODE = 76.1416
ARG_OF_PERICENTER = 261.7676
MEAN_ANOMALY   = 321.7621

EPHEMERIS_TYPE = 0
CLASSIFICATION_TYPE = U
NORAD_CAT_ID   = 67415
ELEMENT_SET_NO = 999
REV_AT_EPOCH   = 458
BSTAR          = .97325E-3
MEAN_MOTION_DOT = .57055E-3
MEAN_MOTION_DDOT = 0

CCSDS_OMM_VERS = 2.0
CREATION_DATE  = 
ORIGINATOR     = 

OBJECT_NAME    = STARLINK-36487
OBJECT_ID      = 2026-005N
CENTER_NAME    = EARTH
REF_FRAME      = TEME
TIME_SYSTEM    = UTC
MEAN_ELEMENT_THEORY = SGP/SGP4

EPOCH          = 2026-02-03T04:00:01.999584
MEAN_MOTION    = 15.50990154
ECCENTRICITY   = .0001369
INCLINATION    = 42.9997
RA_OF_ASC_NODE = 76.1360
ARG_OF_PERICENTER = 258.0444
MEAN_ANOMALY   = 327.3096

EPHEMERIS_TYPE = 0
CLASSIFICATION_TYPE = U
NORAD_CAT_ID   = 67416
ELEMENT_SET_NO = 999
REV_AT_EPOCH   = 463
BSTAR          = -.27596E-1
MEAN_MOTION_DOT = -.1489219E-1
MEAN_MOTION_DDOT = 0

CCSDS_OMM_VERS = 2.0
CREATION_DATE  = 
ORIGINATOR     = 

OBJECT_NAME    = STARLINK-36374
OBJECT_ID      = 2026-005P
CENTER_NAME    = EARTH
REF_FRAME      = TEME
TIME_SYSTEM    = UTC
MEAN_ELEMENT_THEORY = SGP/SGP4

EPOCH          = 2026-02-03T04:00:01.999584
MEAN_MOTION    = 15.50522806
ECCENTRICITY   = .0001402
INCLINATION    = 42.9998
RA_OF_ASC_NODE = 76.1321
ARG_OF_PERICENTER = 260.3458
MEAN_ANOMALY   = 327.0175

EPHEMERIS_TYPE = 0
CLASSIFICATION_TYPE = U
NORAD_CAT_ID   = 67417
ELEMENT_SET_NO = 999
REV_AT_EPOCH   = 463
BSTAR          = .98352E-3
MEAN_MOTION_DOT = .57667E-3
MEAN_MOTION_DDOT = 0

CCSDS_OMM_VERS = 2.0
CREATION_DATE  = 
ORIGINATOR     = 

OBJECT_NAME    = STARLINK-36455
OBJECT_ID      = 2026-005Q
CENTER_NAME    = EARTH
REF_FRAME      = TEME
TIME_SYSTEM    = UTC
MEAN_ELEMENT_THEORY = SGP/SGP4

EPOCH          = 2026-02-03T04:00:01.999584
MEAN_MOTION    = 15.50522560
ECCENTRICITY   = .000146
INCLINATION    = 42.9998
RA_OF_ASC_NODE = 76.1271
ARG_OF_PERICENTER = 260.7040
MEAN_ANOMALY   = 328.5776

EPHEMERIS_TYPE = 0
CLASSIFICATION_TYPE = U
NORAD_CAT_ID   = 67418
ELEMENT_SET_NO = 999
REV_AT_EPOCH   = 463
BSTAR          = .10059E-2
MEAN_MOTION_DOT = .58997E-3
MEAN_MOTION_DDOT = 0

CCSDS_OMM_VERS = 2.0
CREATION_DATE  = 
ORIGINATOR     = 

OBJECT_NAME    = STARLINK-36424
OBJECT_ID      = 2026-005R
CENTER_NAME    = EARTH
REF_FRAME      = TEME
TIME_SYSTEM    = UTC
MEAN_ELEMENT_THEORY = SGP/SGP4

EPOCH          = 2026-02-03T04:00:01.999584
MEAN_MOTION    = 15.50524653
ECCENTRICITY   = .0001089
INCLINATION    = 42.9997
RA_OF_ASC_NODE = 76.1223
ARG_OF_PERICENTER = 263.5116
MEAN_ANOMALY   = 327.6845

EPHEMERIS_TYPE = 0
CLASSIFICATION_TYPE = U
NORAD_CAT_ID   = 67419
ELEMENT_SET_NO = 999
REV_AT_EPOCH   = 463
BSTAR          = .99899E-3
MEAN_MOTION_DOT = .5859E-3
MEAN_MOTION_DDOT = 0

CCSDS_OMM_VERS = 2.0
CREATION_DATE  = 
ORIGINATOR     = 

OBJECT_NAME    = STARLINK-35564
OBJECT_ID      = 2026-005S
CENTER_NAME    = EARTH
REF_FRAME      = TEME
TIME_SYSTEM    = UTC
MEAN_ELEMENT_THEORY = SGP/SGP4

EPOCH          = 2026-02-03T04:00:01.999584
MEAN_MOTION    = 15.50526432
ECCENTRICITY   = .0001476
INCLINATION    = 42.9997
RA_OF_ASC_NODE = 76.1174
ARG_OF_PERICENTER = 262.7535
MEAN_ANOMALY   = 330.3579

EPHEMERIS_TYPE = 0
CLASSIFICATION_TYPE = U
NORAD_CAT_ID   = 67420
ELEMENT_SET_NO = 999
REV_AT_EPOCH   = 453
BSTAR          = .98172E-3
MEAN_MOTION_DOT = .57567E-3
MEAN_MOTION_DDOT = 0

CCSDS_OMM_VERS = 2.0
CREATION_DATE  = 
ORIGINATOR     = 

OBJECT_NAME    = STARLINK-36431
OBJECT_ID      = 2026-005T
CENTER_NAME    = EARTH
REF_FRAME      = TEME
TIME_SYSTEM    = UTC
MEAN_ELEMENT_THEORY = SGP/SGP4

EPOCH          = 2026-02-03T04:00:01.999584
MEAN_MOTION    = 15.48644328
ECCENTRICITY   = .0000712
INCLINATION    = 42.9997
RA_OF_ASC_NODE = 76.1162
ARG_OF_PERICENTER = 289.1399
MEAN_ANOMALY   = 304.3095

EPHEMERIS_TYPE = 0
CLASSIFICATION_TYPE = U
NORAD_CAT_ID   = 67421
ELEMENT_SET_NO = 999
REV_AT_EPOCH   = 442
BSTAR          = -.43144E-1
MEAN_MOTION_DOT = -.2097414E-1
MEAN_MOTION_DDOT = 0

CCSDS_OMM_VERS = 2.0
CREATION_DATE  = 
ORIGINATOR     = 

OBJECT_NAME    = STARLINK-36418
OBJECT_ID      = 2026-005U
CENTER_NAME    = EARTH
REF_FRAME      = TEME
TIME_SYSTEM    = UTC
MEAN_ELEMENT_THEORY = SGP/SGP4

EPOCH          = 2026-02-03T04:00:01.999584
MEAN_MOTION    = 15.50526775
ECCENTRICITY   = .0000993
INCLINATION    = 42.9998
RA_OF_ASC_NODE = 76.1078
ARG_OF_PERICENTER = 263.2311
MEAN_ANOMALY   = 333.7161

EPHEMERIS_TYPE = 0
CLASSIFICATION_TYPE = U
NORAD_CAT_ID   = 67422
ELEMENT_SET_NO = 999
REV_AT_EPOCH   = 458
BSTAR          = .94749E-3
MEAN_MOTION_DOT = .55534E-3
MEAN_MOTION_DDOT = 0

CCSDS_OMM_VERS = 2.0
CREATION_DATE  = 
ORIGINATOR     = 

OBJECT_NAME    = STARLINK-36465
OBJECT_ID      = 2026-005V
CENTER_NAME    = EARTH
REF_FRAME      = TEME
TIME_SYSTEM    = UTC
MEAN_ELEMENT_THEORY = SGP/SGP4

EPOCH          = 2026-02-03T04:00:01.999584
MEAN_MOTION    = 15.50991348
ECCENTRICITY   = .0001166
INCLINATION    = 43.0000
RA_OF_ASC_NODE = 76.1039
ARG_OF_PERICENTER = 253.9276
MEAN_ANOMALY   = 344.8531

EPHEMERIS_TYPE = 0
CLASSIFICATION_TYPE = U
NORAD_CAT_ID   = 67423
ELEMENT_SET_NO = 999
REV_AT_EPOCH   = 437
BSTAR          = -.30899E-1
MEAN_MOTION_DOT = -.1649237E-1
MEAN_MOTION_DDOT = 0

CCSDS_OMM_VERS = 2.0
CREATION_DATE  = 
ORIGINATOR     = 

OBJECT_NAME    = STARLINK-36362
OBJECT_ID      = 2026-005W
CENTER_NAME    = EARTH
REF_FRAME      = TEME
TIME_SYSTEM    = UTC
MEAN_ELEMENT_THEORY = SGP/SGP4

EPOCH          = 2026-02-03T04:00:01.999584
MEAN_MOTION    = 15.50577933
ECCENTRICITY   = .0001472
INCLINATION    = 42.9999
RA_OF_ASC_NODE = 76.0990
ARG_OF_PERICENTER = 264.1804
MEAN_ANOMALY   = 336.5827

EPHEMERIS_TYPE = 0
CLASSIFICATION_TYPE = U
NORAD_CAT_ID   = 67424
ELEMENT_SET_NO = 999
REV_AT_EPOCH   = 463
BSTAR          = -.59975E-3
MEAN_MOTION_DOT = -.35366E-3
MEAN_MOTION_DDOT = 0

