STARLINK-36442          
1 67413U 26005K   26034.16668981  .00055085  00000+0  93991-3 0  9990
2 67413  42.9996  76.1506 0001120 262.5113 317.1811 15.50527169  4637
STARLINK-36506          
1 67414U 26005L   26034.16668981  .00058150  00000+0  99157-3 0  9997
2 67414  42.9997  76.1463 0001098 258.5032 323.1053 15.50525093  4639
STARLINK-36468          
1 67415U 26005M   26034.16668981  .00057055  00000+0  97325-3 0  9996
2 67415  42.9998  76.1416 0001344 261.7676 321.7621 15.50522176  4581
STARLINK-36487          
1 67416U 26005N   26034.16668981 -.01489219  00000+0 -27596-1 0  9992
2 67416  42.9997  76.1360 0001369 258.0444 327.3096 15.50990154  4637
STARLINK-36374          
1 67417U 26005P   26034.16668981  .00057667  00000+0  98352-3 0  9998
2 67417  42.9998  76.1321 0001402 260.3458 327.0175 15.50522806  4635
STARLINK-36455          
1 67418U 26005Q   26034.16668981  .00058997  00000+0  10059-2 0  9993
2 67418  42.9998  76.1271 0001460 260.7040 328.5776 15.50522560  4635
STARLINK-36424          
1 67419U 26005R   26034.16668981  .00058590  00000+0  99899-3 0  9993
2 67419  42.9997  76.1223 0001089 263.5116 327.6845 15.50524653  4636
STARLINK-35564          
1 67420U 26005S   26034.16668981  .00057567  00000+0  98172-3 0  9991
2 67420  42.9997  76.1174 0001476 262.7535 330.3579 15.50526432  4530
STARLINK-36431          
1 67421U 26005T   26034.16668981 -.02097414  00000+0 -43144-1 0  9998
2 67421  42.9997  76.1162 0000712 289.1399 304.3095 15.48644328  4425
STARLINK-36418          
1 67422U 26005U   26034.16668981  .00055534  00000+0  94749-3 0  9991
2 67422  42.9998  76.1078 0000993 263.2311 333.7161 15.50526775  4586
STARLINK-36465          
1 67423U 26005V   26034.16668981 -.01649237  00000+0 -30899-1 0  9998
2 67423  43.0000  76.1039 0001166 253.9276 344.8531 15.50991348  4372
STARLINK-36362          
1 67424U 26005W   26034.16668981 -.00035366  00000+0 -59975-3 0  9998
2 67424  42.9999  76.0990 0001472 264.1804 336.5827 15.50577933  4639
